NAVSTAR 48 (USA 151)    
1 26407U 00040A   26134.43607429  .00000034  00000+0  00000+0 0  9999
2 26407  54.8571 216.5029 0121418 302.3488  92.0921  2.00557364189273
NAVSTAR 51 (USA 166)    
1 27663U 03005A   26135.21371128  .00000041  00000+0  00000+0 0  9997
2 27663  54.8879 216.2790 0148014  53.0116 318.4374  2.00562272170653
NAVSTAR 54 (USA 177)    
1 28190U 04009A   26133.74174988 -.00000036  00000+0  00000+0 0  9994
2 28190  54.8595 277.0782 0114536 171.5512  11.0195  2.00555769162255
NAVSTAR 56 (USA 180)    
1 28474U 04045A   26135.16243063 -.00000055  00000+0  00000+0 0  9999
2 28474  55.1554 326.2260 0169894 315.5399 237.8564  2.00554302157767
NAVSTAR 57 (USA 183)    
1 28874U 05038A   26134.51764315 -.00000035  00000+0  00000+0 0  9990
2 28874  54.9068 274.5356 0127708 295.9459 114.0856  2.00567927151160
NAVSTAR 58 (USA 190)    
1 29486U 06042A   26135.23211999  .00000108  00000+0  00000+0 0  9991
2 29486  54.7056 152.6472 0106154  53.7367  50.1436  2.00571679143737
NAVSTAR 59 (USA 192)    
1 29601U 06052A   26134.01540061  .00000033  00000+0  00000+0 0  9998
2 29601  54.9397 215.3608 0085906  90.5092 270.5309  2.00556246142727
NAVSTAR 60 (USA 196)    
1 32260U 07047A   26134.32020242 -.00000003  00000+0  00000+0 0  9994
2 32260  54.0712  81.4608 0165305  86.7596 275.0994  2.00556907136136
NAVSTAR 61 (USA 199)    
1 32384U 07062A   26134.61048421 -.00000035  00000+0  00000+0 0  9994
2 32384  55.0598 275.5018 0035060 163.4540 173.1522  2.00557942134833
NAVSTAR 62 (USA 201)    
1 32711U 08012A   26134.23441700  .00000114  00000+0  00000+0 0  9996
2 32711  54.4916 151.2812 0210383 247.3818 110.4365  2.00571490133077
NAVSTAR 64 (USA 206)    
1 35752U 09043A   26134.53497476 -.00000072  00000+0  00000+0 0  9997
2 35752  56.1900  28.7737 0053321  81.9004 147.3144  2.00556003122689
NAVSTAR 65 (USA 213)    
1 36585U 10022A   26135.04828097  .00000050  00000+0  00000+0 0  9990
2 36585  54.2737 209.8972 0126448  66.1124 291.3238  2.00560732116921
NAVSTAR 67 (USA 239)    
1 38833U 12053A   26134.41374478  .00000109  00000+0  00000+0 0  9998
2 38833  53.5790 144.9829 0178616  65.3216 296.5777  2.00566886 98769
NAVSTAR 68 (USA 242)    
1 39166U 13023A   26133.28260935 -.00000033  00000+0  00000+0 0  9999
2 39166  54.5327 270.3950 0141822  50.8306 310.3961  2.00563631 95181
NAVSTAR 69 (USA 248)    
1 39533U 14008A   26134.28095086  .00000112  00000+0  00000+0 0  9992
2 39533  53.6482 150.7026 0084076 230.6122 128.6977  2.00557592 89007
NAVSTAR 70 (USA 251)    
1 39741U 14026A   26134.05786260 -.00000051  00000+0  00000+0 0  9992
2 39741  56.5142 332.8462 0038618 326.8645  32.9252  2.00563452 87855
NAVSTAR 71 (USA 256)    
1 40105U 14045A   26134.14895784  .00000019  00000+0  00000+0 0  9994
2 40105  55.3318  89.8204 0032082 118.7363 241.5584  2.00556087 85399
NAVSTAR 72 (USA 258)    
1 40294U 14068A   26134.02160300 -.00000070  00000+0  00000+0 0  9992
2 40294  56.9651  32.2713 0066015  69.3905 291.3455  2.00573953 84523
NAVSTAR 73 (USA 260)    
1 40534U 15013A   26135.15467833  .00000057  00000+0  00000+0 0  9990
2 40534  53.1711 205.5439 0109004  40.0300 320.8464  2.00553316 81163
NAVSTAR 74 (USA 262)    
1 40730U 15033A   26135.31379536 -.00000030  00000+0  00000+0 0  9992
2 40730  54.0093 268.4414 0115002  30.0711 330.5578  2.00557884 79339
NAVSTAR 75 (USA 265)    
1 41019U 15062A   26134.87253837 -.00000070  00000+0  00000+0 0  9994
2 41019  56.9380  32.0948 0111312 231.3677 127.6632  2.00566922 77162
NAVSTAR 76 (USA 266)    
1 41328U 16007A   26132.96693977  .00000032  00000+0  00000+0 0  9995
2 41328  55.5031  90.8552 0096124 247.2479 111.7128  2.00553357 75132
NAVSTAR 77 (USA 289)    
1 43873U 18109A   26134.60539291  .00000024  00000+0  00000+0 0  9999
2 43873  55.6623  93.5113 0038011 198.6968 157.6362  2.00560026 54398
NAVSTAR 78 (USA 293)    
1 44506U 19056A   26134.25098181 -.00000053  00000+0  00000+0 0  9997
2 44506  55.6530 332.4919 0060363 197.4131 165.7347  2.00569226 49390
NAVSTAR 79 (USA 304)    
1 45854U 20041A   26135.06984015 -.00000070  00000+0  00000+0 0  9999
2 45854  56.6490  30.2291 0062660 204.7783 329.3753  2.00559186 43371
NAVSTAR 80 (USA 309)    
1 46826U 20078A   26134.30789351  .00000040  00000+0  00000+0 0  9997
2 46826  53.9846 212.1531 0072044 206.2235 113.0392  2.00564762 40820
NAVSTAR 81 (USA 319)    
1 48859U 21054A   26134.60633609 -.00000056  00000+0  00000+0 0  9995
2 48859  55.1893 333.8099 0024481 229.2406 131.3842  2.00571021 36083
NAVSTAR 82 (USA 343)    
1 55268U 23009A   26134.54936838  .00000113  00000+0  00000+0 0  9995
2 55268  55.1173 149.8412 0006001 314.7460  42.5876  2.00573756 24565
NAVSTAR 83 (USA 440)    
1 62339U 24242A   26132.18781948 -.00000054  00000+0  00000+0 0  9995
2 62339  54.8657 335.6414 0017084   3.1785 171.5342  2.00570893 10536
NAVSTAR 84 (USA 545)    
1 64202U 25116A   26131.73938987 -.00000072  00000+0  00000+0 0  9994
2 64202  55.2115  32.5982 0008550 334.4876  58.4969  2.00578431  7140
NAVSTAR 85 (USA 581)    
1 67588U 26017A   26133.29810109  .00000027  00000+0  00000+0 0  9992
2 67588  55.0667  90.1549 0023003 255.4228 104.2985  2.00571815430914
