OBJECT_NAME,OBJECT_ID,EPOCH,MEAN_MOTION,ECCENTRICITY,INCLINATION,RA_OF_ASC_NODE,ARG_OF_PERICENTER,MEAN_ANOMALY,EPHEMERIS_TYPE,CLASSIFICATION_TYPE,NORAD_CAT_ID,ELEMENT_SET_NO,REV_AT_EPOCH,BSTAR,MEAN_MOTION_DOT,MEAN_MOTION_DDOT
GPS BIIR-5  (PRN 22),2000-040A,2026-05-14T10:27:56.818656,2.00557364,.01214188,54.8571,216.5029,302.3488,92.0921,0,U,26407,999,18927,0,.34E-6,0
GPS BIIR-8  (PRN 16),2003-005A,2026-05-15T05:07:44.654592,2.00562272,.01480141,54.8879,216.2790,53.0116,318.4374,0,U,27663,999,17065,0,.41E-6,0
GPS BIIR-11 (PRN 19),2004-009A,2026-05-13T17:48:07.189632,2.00555769,.01145365,54.8595,277.0782,171.5512,11.0195,0,U,28190,999,16225,0,-.36E-6,0
GPS BIIR-13 (PRN 02),2004-045A,2026-05-15T03:53:54.006432,2.00554302,.01698944,55.1554,326.2260,315.5399,237.8564,0,U,28474,999,15776,0,-.55E-6,0
GPS BIIRM-1 (PRN 17),2005-038A,2026-05-14T12:25:24.368160,2.00567927,.01277087,54.9068,274.5356,295.9459,114.0856,0,U,28874,999,15116,0,-.35E-6,0
GPS BIIRM-2 (PRN 31),2006-042A,2026-05-15T05:34:15.167136,2.00571679,.01061549,54.7056,152.6472,53.7367,50.1436,0,U,29486,999,14373,0,.108E-5,0
GPS BIIRM-3 (PRN 12),2006-052A,2026-05-14T00:22:10.612704,2.00556246,.00859064,54.9397,215.3608,90.5092,270.5309,0,U,29601,999,14272,0,.33E-6,0
GPS BIIRM-4 (PRN 15),2007-047A,2026-05-14T07:41:05.489088,2.00556907,.01653056,54.0712,81.4608,86.7596,275.0994,0,U,32260,999,13613,0,-.3E-7,0
GPS BIIRM-5 (PRN 29),2007-062A,2026-05-14T14:39:05.835744,2.00557942,.003506,55.0598,275.5018,163.4540,173.1522,0,U,32384,999,13483,0,-.35E-6,0
GPS BIIRM-6 (PRN 07),2008-012A,2026-05-14T05:37:33.628800,2.00571490,.02103832,54.4916,151.2812,247.3818,110.4365,0,U,32711,999,13307,0,.114E-5,0
GPS BIIRM-8 (PRN 05),2009-043A,2026-05-14T12:50:21.819264,2.00556003,.00533214,56.1900,28.7737,81.9004,147.3144,0,U,35752,999,12268,0,-.72E-6,0
GPS BIIF-1  (PRN 25),2010-022A,2026-05-15T01:09:31.475808,2.00560732,.01264489,54.2737,209.8972,66.1124,291.3238,0,U,36585,999,11692,0,.5E-6,0
GPS BIIF-3  (PRN 24),2012-053A,2026-05-14T09:55:47.548992,2.00566886,.0178616,53.5790,144.9829,65.3216,296.5777,0,U,38833,999,9876,0,.109E-5,0
GPS BIIF-4  (PRN 27),2013-023A,2026-05-13T06:46:57.447840,2.00563631,.01418226,54.5327,270.3950,50.8306,310.3961,0,U,39166,999,9518,0,-.33E-6,0
GPS BIIF-5  (PRN 30),2014-008A,2026-05-14T06:44:34.154304,2.00557592,.00840763,53.6482,150.7026,230.6122,128.6977,0,U,39533,999,8900,0,.112E-5,0
GPS BIIF-6  (PRN 06),2014-026A,2026-05-14T01:23:19.328640,2.00563452,.00386186,56.5142,332.8462,326.8645,32.9252,0,U,39741,999,8785,0,-.51E-6,0
GPS BIIF-7  (PRN 09),2014-045A,2026-05-14T03:34:29.957376,2.00556087,.00320826,55.3318,89.8204,118.7363,241.5584,0,U,40105,999,8539,0,.19E-6,0
GPS BIIF-8  (PRN 03),2014-068A,2026-05-14T00:31:06.499200,2.00573953,.00660151,56.9651,32.2713,69.3905,291.3455,0,U,40294,999,8452,0,-.7E-6,0
GPS BIIF-9  (PRN 26),2015-013A,2026-05-15T03:42:44.207712,2.00553316,.01090046,53.1711,205.5439,40.0300,320.8464,0,U,40534,999,8116,0,.57E-6,0
GPS BIIF-10 (PRN 08),2015-033A,2026-05-15T07:31:51.919104,2.00557884,.01150022,54.0093,268.4414,30.0711,330.5578,0,U,40730,999,7933,0,-.3E-6,0
GPS BIIF-11 (PRN 10),2015-062A,2026-05-14T20:56:27.315168,2.00566922,.01113128,56.9380,32.0948,231.3677,127.6632,0,U,41019,999,7716,0,-.7E-6,0
GPS BIIF-12 (PRN 32),2016-007A,2026-05-12T23:12:23.596128,2.00553357,.00961244,55.5031,90.8552,247.2479,111.7128,0,U,41328,999,7513,0,.32E-6,0
GPS BIII-1  (PRN 04),2018-109A,2026-05-14T14:31:45.947424,2.00560026,.00380117,55.6623,93.5113,198.6968,157.6362,0,U,43873,999,5439,0,.24E-6,0
GPS BIII-2  (PRN 18),2019-056A,2026-05-14T06:01:24.828384,2.00569226,.0060363,55.6530,332.4919,197.4131,165.7347,0,U,44506,999,4939,0,-.53E-6,0
GPS BIII-3  (PRN 23),2020-041A,2026-05-15T01:40:34.188960,2.00559186,.00626609,56.6490,30.2291,204.7783,329.3753,0,U,45854,999,4337,0,-.7E-6,0
GPS BIII-4  (PRN 14),2020-078A,2026-05-14T07:23:21.999264,2.00564762,.00720443,53.9846,212.1531,206.2235,113.0392,0,U,46826,999,4082,0,.4E-6,0
GPS BIII-5  (PRN 11),2021-054A,2026-05-14T14:33:07.438176,2.00571021,.00244817,55.1893,333.8099,229.2406,131.3842,0,U,48859,999,3608,0,-.56E-6,0
GPS BIII-6  (PRN 28),2023-009A,2026-05-14T13:11:05.428032,2.00573756,.00060013,55.1173,149.8412,314.7460,42.5876,0,U,55268,999,2456,0,.113E-5,0
GPS BIII-7  (PRN 01),2024-242A,2026-05-12T04:30:27.603072,2.00570893,.00170843,54.8657,335.6414,3.1785,171.5342,0,U,62339,999,1053,0,-.54E-6,0
GPS BIII-8  (PRN 21),2025-116A,2026-05-11T17:44:43.284768,2.00578431,.00085508,55.2115,32.5982,334.4876,58.4969,0,U,64202,999,714,0,-.72E-6,0
GPS BIII-9  (PRN 20),2026-017A,2026-05-13T07:09:15.934176,2.00571815,.00230033,55.0667,90.1549,255.4228,104.2985,0,U,67588,999,43091,0,.27E-6,0
